{"type": "FeatureCollection", "features": [ {"type": "Feature", "properties": {"norad_id": 30295, "name": "FENGYUN 1C DEB", "group": "fengyun-1c-debris", "lat": -48.04953471078276, "lon": 25.610568895061547, "alt_km": 838.6303393764429, "timestamp": "2025-12-19T18:58:41.863316+00:00", "meta": {"OBJECT_NAME": "FENGYUN 1C DEB", "OBJECT_ID": "1999-025ZG", "EPOCH": "2025-12-19T07:28:53.428800", "MEAN_MOTION": 14.25049146, "ECCENTRICITY": 0.00943747, "INCLINATION": 98.5076, "RA_OF_ASC_NODE": 15.5601, "ARG_OF_PERICENTER": 63.495, "MEAN_ANOMALY": 312.7141, "EPHEMERIS_TYPE": 0, "CLASSIFICATION_TYPE": "U", "NORAD_CAT_ID": 30295, "ELEMENT_SET_NO": 999, "REV_AT_EPOCH": 98270, "BSTAR": 0.00012633997, "MEAN_MOTION_DOT": 2.68e-06, "MEAN_MOTION_DDOT": 0}, "tle": {"line1": "1 30295U 99025ZG  25353.31172950  .00000268  00000+0  12634-3 0  9994", "line2": "2 30295  98.5076  15.5601 0094374  63.4950 312.7141 14.25049146982709"}}, "geometry": {"type": "Point", "coordinates": [25.610568895061547, -48.04953471078276]}}, {"type": "Feature", "properties": {"norad_id": 30297, "name": "FENGYUN 1C DEB", "group": "fengyun-1c-debris", "lat": 3.975789984703647, "lon": 125.9717074735001, "alt_km": 766.6554767684293, "timestamp": "2025-12-19T18:58:41.863326+00:00", "meta": {"OBJECT_NAME": "FENGYUN 1C DEB", "OBJECT_ID": "1999-025ZJ", "EPOCH": "2025-12-18T20:21:55.493280", "MEAN_MOTION": 14.21860442, "ECCENTRICITY": 0.03797468, "INCLINATION": 98.8121, "RA_OF_ASC_NODE": 304.4104, "ARG_OF_PERICENTER": 97.9977, "MEAN_ANOMALY": 293.4437, "EPHEMERIS_TYPE": 0, "CLASSIFICATION_TYPE": "U", "NORAD_CAT_ID": 30297, "ELEMENT_SET_NO": 999, "REV_AT_EPOCH": 95239, "BSTAR": 0.00094348803, "MEAN_MOTION_DOT": 4.313e-05, "MEAN_MOTION_DDOT": 0}, "tle": {"line1": "1 30297U 99025ZJ  25352.84855895  .00004313  00000+0  94349-3 0  9997", "line2": "2 30297  98.8121 304.4104 0379746  97.9977 293.4437 14.21860442952394"}}, "geometry": {"type": "Point", "coordinates": [125.9717074735001, 3.975789984703647]}}, {"type": "Feature", "properties": {"norad_id": 30298, "name": "FENGYUN 1C DEB", "group": "fengyun-1c-debris", "lat": -8.504207422642406, "lon": -96.50899698857882, "alt_km": 823.2665789922294, "timestamp": "2025-12-19T18:58:41.863336+00:00", "meta": {"OBJECT_NAME": "FENGYUN 1C DEB", "OBJECT_ID": "1999-025ZK", "EPOCH": "2025-12-19T04:52:12.872928", "MEAN_MOTION": 14.19984193, "ECCENTRICITY": 0.00479195, "INCLINATION": 99.0021, "RA_OF_ASC_NODE": 84.2515, "ARG_OF_PERICENTER": 110.0314, "MEAN_ANOMALY": 314.6141, "EPHEMERIS_TYPE": 0, "CLASSIFICATION_TYPE": "U", "NORAD_CAT_ID": 30298, "ELEMENT_SET_NO": 999, "REV_AT_EPOCH": 96926, "BSTAR": 0.0013597602, "MEAN_MOTION_DOT": 2.88e-05, "MEAN_MOTION_DDOT": 0}, "tle": {"line1": "1 30298U 99025ZK  25353.20292677  .00002880  00000+0  13598-2 0  9995", "line2": "2 30298  99.0021  84.2515 0047919 110.0314 314.6141 14.19984193969261"}}, "geometry": {"type": "Point", "coordinates": [-96.50899698857882, -8.504207422642406]}}, {"type": "Feature", "properties": {"norad_id": 30299, "name": "FENGYUN 1C DEB", "group": "fengyun-1c-debris", "lat": 76.96946687418135, "lon": -70.1338097246601, "alt_km": 886.2825355205523, "timestamp": "2025-12-19T18:58:41.863346+00:00", "meta": {"OBJECT_NAME": "FENGYUN 1C DEB", "OBJECT_ID": "1999-025ZL", "EPOCH": "2025-12-19T03:18:11.577600", "MEAN_MOTION": 14.07778648, "ECCENTRICITY": 0.01030752, "INCLINATION": 99.0941, "RA_OF_ASC_NODE": 65.4131, "ARG_OF_PERICENTER": 349.7633, "MEAN_ANOMALY": 40.2465, "EPHEMERIS_TYPE": 0, "CLASSIFICATION_TYPE": "U", "NORAD_CAT_ID": 30299, "ELEMENT_SET_NO": 999, "REV_AT_EPOCH": 96380, "BSTAR": 0.0012628579, "MEAN_MOTION_DOT": 2.2e-05, "MEAN_MOTION_DDOT": 0}, "tle": {"line1": "1 30299U 99025ZL  25353.13763400  .00002200  00000+0  12629-2 0  9995", "line2": "2 30299  99.0941  65.4131 0103075 349.7633  40.2465 14.07778648963807"}}, "geometry": {"type": "Point", "coordinates": [-70.1338097246601, 76.96946687418135]}}, {"type": "Feature", "properties": {"norad_id": 30300, "name": "FENGYUN 1C DEB", "group": "fengyun-1c-debris", "lat": 35.43685613162911, "lon": 56.85793888770527, "alt_km": 828.4344970809334, "timestamp": "2025-12-19T18:58:41.863356+00:00", "meta": {"OBJECT_NAME": "FENGYUN 1C DEB", "OBJECT_ID": "1999-025ZM", "EPOCH": "2025-12-19T03:48:05.188896", "MEAN_MOTION": 14.26899681, "ECCENTRICITY": 0.00756002, "INCLINATION": 99.0404, "RA_OF_ASC_NODE": 62.7103, "ARG_OF_PERICENTER": 275.4697, "MEAN_ANOMALY": 113.2793, "EPHEMERIS_TYPE": 0, "CLASSIFICATION_TYPE": "U", "NORAD_CAT_ID": 30300, "ELEMENT_SET_NO": 999, "REV_AT_EPOCH": 97076, "BSTAR": 0.0016293339, "MEAN_MOTION_DOT": 4.032e-05, "MEAN_MOTION_DDOT": 0}, "tle": {"line1": "1 30300U 99025ZM  25353.15839339  .00004032  00000+0  16293-2 0  9991", "line2": "2 30300  99.0404  62.7103 0075600 275.4697 113.2793 14.26899681970760"}}, "geometry": {"type": "Point", "coordinates": [56.85793888770527, 35.43685613162911]}}, {"type": "Feature", "properties": {"norad_id": 30301, "name": "FENGYUN 1C DEB", "group": "fengyun-1c-debris", "lat": 40.65521911654312, "lon": -27.380399107133297, "alt_km": 742.9425367222975, "timestamp": "2025-12-19T18:58:41.863366+00:00", "meta": {"OBJECT_NAME": "FENGYUN 1C DEB", "OBJECT_ID": "1999-025ZN", "EPOCH": "2025-12-19T04:16:11.888832", "MEAN_MOTION": 14.53189589, "ECCENTRICITY": 0.00691707, "INCLINATION": 98.6344, "RA_OF_ASC_NODE": 144.4906, "ARG_OF_PERICENTER": 270.0069, "MEAN_ANOMALY": 265.0528, "EPHEMERIS_TYPE": 0, "CLASSIFICATION_TYPE": "U", "NORAD_CAT_ID": 30301, "ELEMENT_SET_NO": 999, "REV_AT_EPOCH": 97310, "BSTAR": 0.0030539601, "MEAN_MOTION_DOT": 0.00013029, "MEAN_MOTION_DDOT": 0}, "tle": {"line1": "1 30301U 99025ZN  25353.17791538  .00013029  00000+0  30540-2 0  9999", "line2": "2 30301  98.6344 144.4906 0069170 270.0069 265.0528 14.53189589973109"}}, "geometry": {"type": "Point", "coordinates": [-27.380399107133297, 40.65521911654312]}}, {"type": "Feature", "properties": {"norad_id": 30302, "name": "FENGYUN 1C DEB", "group": "fengyun-1c-debris", "lat": -54.9504910937561, "lon": -86.4344359345841, "alt_km": 924.3225312113864, "timestamp": "2025-12-19T18:58:41.863377+00:00", "meta": {"OBJECT_NAME": "FENGYUN 1C DEB", "OBJECT_ID": "1999-025ZP", "EPOCH": "2025-12-18T05:51:11.231136", "MEAN_MOTION": 14.1284744, "ECCENTRICITY": 0.0105226, "INCLINATION": 98.554, "RA_OF_ASC_NODE": 259.6981, "ARG_OF_PERICENTER": 101.7934, "MEAN_ANOMALY": 259.5065, "EPHEMERIS_TYPE": 0, "CLASSIFICATION_TYPE": "U", "NORAD_CAT_ID": 30302, "ELEMENT_SET_NO": 999, "REV_AT_EPOCH": 96121, "BSTAR": 0.0018248401, "MEAN_MOTION_DOT": 3.537e-05, "MEAN_MOTION_DDOT": 0}, "tle": {"line1": "1 30302U 99025ZP  25352.24387999  .00003537  00000+0  18248-2 0  9993", "line2": "2 30302  98.5540 259.6981 0105226 101.7934 259.5065 14.12847440961218"}}, "geometry": {"type": "Point", "coordinates": [-86.4344359345841, -54.9504910937561]}}, {"type": "Feature", "properties": {"norad_id": 30303, "name": "FENGYUN 1C DEB", "group": "fengyun-1c-debris", "lat": -38.687068527951155, "lon": -116.00960800907991, "alt_km": 771.1794777950208, "timestamp": "2025-12-19T18:58:41.863387+00:00", "meta": {"OBJECT_NAME": "FENGYUN 1C DEB", "OBJECT_ID": "1999-025ZQ", "EPOCH": "2025-12-19T04:28:26.075424", "MEAN_MOTION": 14.25895485, "ECCENTRICITY": 0.00769653, "INCLINATION": 99.0208, "RA_OF_ASC_NODE": 70.677, "ARG_OF_PERICENTER": 263.8432, "MEAN_ANOMALY": 95.3974, "EPHEMERIS_TYPE": 0, "CLASSIFICATION_TYPE": "U", "NORAD_CAT_ID": 30303, "ELEMENT_SET_NO": 999, "REV_AT_EPOCH": 97127, "BSTAR": 0.0017896087, "MEAN_MOTION_DOT": 4.351e-05, "MEAN_MOTION_DDOT": 0}, "tle": {"line1": "1 30303U 99025ZQ  25353.18641291  .00004351  00000+0  17896-2 0  9999", "line2": "2 30303  99.0208  70.6770 0076965 263.8432  95.3974 14.25895485971271"}}, "geometry": {"type": "Point", "coordinates": [-116.00960800907991, -38.687068527951155]}}, {"type": "Feature", "properties": {"norad_id": 30304, "name": "FENGYUN 1C DEB", "group": "fengyun-1c-debris", "lat": 62.770286265786474, "lon": -95.68026025538146, "alt_km": 831.0591151919452, "timestamp": "2025-12-19T18:58:41.863397+00:00", "meta": {"OBJECT_NAME": "FENGYUN 1C DEB", "OBJECT_ID": "1999-025ZR", "EPOCH": "2025-12-18T10:12:26.700192", "MEAN_MOTION": 14.15523113, "ECCENTRICITY": 0.00734007, "INCLINATION": 99.0328, "RA_OF_ASC_NODE": 64.9301, "ARG_OF_PERICENTER": 32.7527, "MEAN_ANOMALY": 327.8165, "EPHEMERIS_TYPE": 0, "CLASSIFICATION_TYPE": "U", "NORAD_CAT_ID": 30304, "ELEMENT_SET_NO": 999, "REV_AT_EPOCH": 96899, "BSTAR": 0.0011981926, "MEAN_MOTION_DOT": 2.359e-05, "MEAN_MOTION_DDOT": 0}, "tle": {"line1": "1 30304U 99025ZR  25352.42530903  .00002359  00000+0  11982-2 0  9999", "line2": "2 30304  99.0328  64.9301 0073400  32.7527 327.8165 14.15523113968995"}}, "geometry": {"type": "Point", "coordinates": [-95.68026025538146, 62.770286265786474]}}, {"type": "Feature", "properties": {"norad_id": 30305, "name": "FENGYUN 1C DEB", "group": "fengyun-1c-debris", "lat": -61.431067731344726, "lon": 96.82268441313869, "alt_km": 1226.4525287685128, "timestamp": "2025-12-19T18:58:41.863407+00:00", "meta": {"OBJECT_NAME": "FENGYUN 1C DEB", "OBJECT_ID": "1999-025ZS", "EPOCH": "2025-12-19T02:29:56.373216", "MEAN_MOTION": 13.60233578, "ECCENTRICITY": 0.0265836, "INCLINATION": 98.5881, "RA_OF_ASC_NODE": 292.3314, "ARG_OF_PERICENTER": 84.4721, "MEAN_ANOMALY": 36.4974, "EPHEMERIS_TYPE": 0, "CLASSIFICATION_TYPE": "U", "NORAD_CAT_ID": 30305, "ELEMENT_SET_NO": 999, "REV_AT_EPOCH": 93860, "BSTAR": 0.00026601112, "MEAN_MOTION_DOT": 2.17e-06, "MEAN_MOTION_DDOT": 0}, "tle": {"line1": "1 30305U 99025ZS  25353.10412469  .00000217  00000+0  26601-3 0  9998", "line2": "2 30305  98.5881 292.3314 0265836  84.4721  36.4974 13.60233578938609"}}, "geometry": {"type": "Point", "coordinates": [96.82268441313869, -61.431067731344726]}}]}